SatCatId,ObjectName,LaunchYear,OrbitalPeriod,LaunchMass,StatusCode,Inclination,Status,UcsData,OrbitClassEstimated,LaunchSiteCountry,Owner,UseType,Purpose,LaunchVehicleClass,TLE1,TLE2,MeanMotion,Eccentricity,OrbitClass
39451,SWARM B,2013,94.52,468.0,+,87.75,Active,1,LEO,Russia,ESA,Government,Earth Observation,Rokot,1 39451U 13067A   23220.00290411  .00003928  00000+0  16377-3 0  9993,2 39451  87.7478 296.4885 0002828 102.6246 257.5317 15.23401845538883,15.23401845,0.0002828,LEO
39452,SWARM A,2013,94.27,468.0,+,87.35,Active,1,LEO,Russia,ESA,Government,Earth Observation,Rokot,1 39452U 13067B   23220.36948692  .00005132  00000+0  18914-3 0  9992,2 39452  87.3506  75.4829 0002685  99.8449 260.3102 15.27575148545837,15.27575148,0.0002685,LEO
39453,SWARM C,2013,94.27,468.0,+,87.34,Active,1,LEO,Russia,ESA,Government,Earth Observation,Rokot,1 39453U 13067C   23220.36940448  .00005114  00000+0  18848-3 0  9990,2 39453  87.3381  74.1083 0002688 100.0302 260.1249 15.27575872545792,15.27575872,0.0002688,LEO
39455,SHIYAN 5 (SY-5),2013,99.83,204.0,+,98.19,Active,1,LEO,PRC,China,Government,Earth Observation,Long March,1 39455U 13068A   23220.36652131  .00000428  00000+0  14185-3 0  9995,2 39455  98.1933 121.9454 0013278 233.7744 126.2220 14.42385908511127,14.42385908,0.0013278,LEO
39460,SES-8,2013,1436.11,3138.0,+,0.06,Active,1,GSO,USA,SES,Commercial,Communications,Falcon,1 39460U 13071A   23219.78313463 -.00000277  00000+0  00000+0 0  9991,2 39460   0.0612 265.5272 0002535 216.3199 211.0962  1.00271020 35404,1.0027102,0.0002535,GEO
39463,FIREBIRD 1,2013,93.71,-1.0,-,120.43,Inactive,0,LEO,USA,USA,Unknown,Unknown,Soyuz,1 39463U 13072B   23219.82658683  .00085457  00000+0  19489-2 0  9992,2 39463 120.4289 342.5615 0105900  41.8715 319.0410 15.36538773214205,15.36538773,0.01059,LEO
39476,INMARSAT 5-F1,2013,1436.13,6070.0,+,0.02,Active,1,GSO,Kazakhstan,INMARSAT,Commercial,Communications,Proton,1 39476U 13073A   23220.40852552  .00000021  00000+0  00000+0 0  9994,2 39476   0.0188  94.1447 0000021 203.5050 228.6666  1.00269140 35462,1.0026914,2.1e-06,GEO
39481,TKSAT-1 (TUPAC KATARI),2013,1436.08,5000.0,+,0.03,Active,1,GSO,PRC,Bolivia,Government,Communications,Long March,1 39481U 13075A   23219.80533394 -.00000203  00000+0  00000+0 0  9997,2 39481   0.0279 119.2279 0002378  21.0692  18.4756  1.00272712 35377,1.00272712,0.0002378,GEO
39483,COSMOS 2488,2013,115.86,280.0,+,82.48,Active,1,LEO,Russia,Russia/USSR,Military,Communications,Rokot,1 39483U 13076A   23219.42200868  .00000019  00000+0  69405-4 0  9998,2 39483  82.4824  99.7928 0018351 210.2434 149.7588 12.42870638436292,12.42870638,0.0018351,LEO
39484,COSMOS 2489,2013,115.86,280.0,+,82.49,Active,1,LEO,Russia,Russia/USSR,Military,Communications,Rokot,1 39484U 13076B   23219.79782692  .00000011  00000+0  11255-4 0  9991,2 39484  82.4861 100.6214 0020542 211.0068 148.9800 12.42886897436406,12.42886897,0.0020542,LEO
39485,COSMOS 2490,2013,115.86,280.0,+,82.48,Active,1,LEO,Russia,Russia/USSR,Military,Communications,Rokot,1 39485U 13076C   23220.09329783  .00000013  00000+0  21185-4 0  9990,2 39485  82.4806  98.9653 0020136 225.8410 134.1015 12.42876563436386,12.42876563,0.0020136,LEO
39487,EXPRESS-AM5,2013,1436.09,3400.0,+,0.02,Active,1,GSO,Kazakhstan,Russia/USSR,Commercial,Communications,Proton,1 39487U 13077A   23219.85059807 -.00000288  00000+0  00000+0 0  9995,2 39487   0.0182  90.4230 0000707 100.1973 211.7272  1.00272168 35868,1.00272168,7.07e-05,GEO
39490,COSMOS 2493 (SKRL-756 1),2013,96.54,-1.0,+,82.42,Active,0,LEO,Russia,Russia/USSR,Unknown,Unknown,Unknown,1 39490U 13078A   23220.39359266  .00003677  00000+0  36313-3 0  9997,2 39490  82.4175 194.0076 0017322 145.6914 214.5428 14.91603428522122,14.91603428,0.0017322,LEO
39491,COSMOS 2494 (SKRL-756 2),2013,96.44,-1.0,+,82.42,Active,0,LEO,Russia,Russia/USSR,Unknown,Unknown,Unknown,1 39491U 13078B   23220.41340355  .00003757  00000+0  35546-3 0  9996,2 39491  82.4178 186.8138 0022208 120.9903 239.3503 14.93224343522505,14.93224343,0.0022208,LEO
39492,AIST-1 (RS-41),2013,96.65,-1.0,-,82.42,Inactive,0,LEO,Russia,Russia/USSR,Unknown,Unknown,Soyuz,1 39492U 13078C   23220.35648702  .00002339  00000+0  24015-3 0  9991,2 39492  82.4182 197.3238 0019727 158.3774 201.8282 14.89860471521816,14.89860471,0.0019727,LEO
39497,COSMOS 2491 (RS-46),2013,115.81,-1.0,-,82.48,Inactive,0,LEO,Russia,Russia/USSR,Unknown,Unknown,Unknown,1 39497U 13076E   23220.39064124 -.00000005  00000+0 -10461-3 0  9998,2 39497  82.4839  99.3254 0012375 205.0831 154.9649 12.43468563436280,12.43468563,0.0012375,LEO
39498,GSAT-14,2014,1436.09,1982.0,+,0.04,Active,1,GSO,India,India,Government,Communications,GSLV,1 39498U 14001A   23220.05245887 -.00000085  00000+0  00000+0 0  9999,2 39498   0.0454 269.1559 0003216 332.8788 167.1267  1.00271938 35117,1.00271938,0.0003216,GEO
39500,THAICOM 6,2014,1436.11,3325.0,+,0.07,Active,1,GSO,USA,Thailand,Commercial,Communications,Falcon,1 39500U 14002A   23220.05333052 -.00000128  00000+0  00000+0 0  9994,2 39500   0.0674 107.3932 0004052  52.7460 253.8309  1.00270859 35051,1.00270859,0.0004052,GEO
39504,TDRS 12,2014,1436.08,3454.0,+,3.6,Active,1,GSO,USA,USA,Government,Communications,Atlas,1 39504U 14004A   23220.38786745 -.00000274  00000+0  00000+0 0  9999,2 39504   3.5982 355.8224 0006069 168.4741 251.1320  1.00273042 34988,1.00273042,0.0006069,GSO
39508,ABS-2,2014,1436.1,6330.0,P,0.01,Active,1,GSO,French Guiana,ABS,Commercial,Communications,Ariane,1 39508U 14006A   23220.41096613 -.00000093  00000+0  00000+0 0  9996,2 39508   0.0081  56.6491 0003450  79.9682  42.8769  1.00271549 34855,1.00271549,0.000345,GEO
39509,ATHENA-FIDUS,2014,1436.08,3080.0,+,0.03,Active,1,GSO,French Guiana,France/Italy,Government/Military,Communications,Ariane,1 39509U 14006B   23219.83020149  .00000146  00000+0  00000+0 0  9990,2 39509   0.0274 116.5293 0001018  26.6903 149.5128  1.00272941 35020,1.00272941,0.0001018,GEO
39522,TURKSAT 4A,2014,1436.12,4869.0,+,0.07,Active,1,GSO,Kazakhstan,Turkey,Commercial,Communications,Proton,1 39522U 14007A   23220.26100616  .00000139  00000+0  00000+0 0  9995,2 39522   0.0724 265.6280 0002044 294.4977 252.2904  1.00269903 34749,1.00269903,0.0002044,GEO
39533,NAVSTAR 69 (USA 248),2014,718.02,1630.0,+,53.6,Active,1,MEO,USA,USA,Commercial/Military,Navigation (Global or Regional Positioning),Delta,1 39533U 14008A   23218.15877135  .00000060  00000+0  00000+0 0  9993,2 39533  53.6026 191.9383 0067281 215.7446 143.7787  2.00550059 69259,2.00550059,0.0067281,MEO
39574,GPM-CORE,2014,92.51,3850.0,+,64.99,Active,1,LEO,Japan,Japan,Government,Earth Observation,H2A,1 39574U 14009C   23219.81067041  .00016608  00000+0  23528-3 0  9999,2 39574  64.9916 210.6035 0013582 272.1298  87.8293 15.56530739536401,15.56530739,0.0013582,LEO
39612,EXPRESS-AT1,2014,1436.08,1726.0,+,0.01,Active,1,GSO,Kazakhstan,Russia/USSR,Commercial,Communications,Proton,1 39612U 14010A   23220.04879795  .00000071  00000+0  00000+0 0  9991,2 39612   0.0053 267.9326 0000188 270.5238 211.3953  1.00273420 34583,1.0027342,1.88e-05,GEO
39613,EXPRESS-AT2,2014,1436.1,1427.0,+,0.0,Active,1,GSO,Kazakhstan,Russia/USSR,Commercial,Communications,Proton,1 39613U 14010B   23220.42386653 -.00000289  00000+0  00000+0 0  9992,2 39613   0.0034 269.1109 0000224  81.0399 258.9391  1.00271727 34413,1.00271727,2.24e-05,GEO
39616,AMAZONAS 4A,2014,1436.15,2938.0,P,0.02,Active,1,GSO,French Guiana,Spain,Commercial,Communications,Ariane,1 39616U 14011A   23219.80786171 -.00000260  00000+0  00000+0 0  9994,2 39616   0.0189  90.1859 0003318  70.7769  11.9030  1.00268261 34397,1.00268261,0.0003318,GEO
39617,ASTRA 5B,2014,1436.07,5724.0,+,0.05,Active,1,GSO,French Guiana,SES,Commercial,Communications,Ariane,1 39617U 14011B   23220.32902187  .00000130  00000+0  00000+0 0  9996,2 39617   0.0481 318.5364 0002800 208.4948 291.4662  1.00273622 34400,1.00273622,0.00028,GEO
39620,COSMOS 2492 [GLONASS-M],2014,675.73,-1.0,+,65.77,Active,0,MEO,Russia,Russia/USSR,Unknown,Unknown,Unknown,1 39620U 14012A   23220.27571174 -.00000085  00000+0  00000+0 0  9993,2 39620  65.7710 349.1757 0010736 326.2610  65.1996  2.13103279 72992,2.13103279,0.0010736,MEO
39624,SJ-11-06,2014,98.65,-1.0,+,98.08,Active,1,LEO,PRC,China,Government,Technology Development,Long March,1 39624U 14014A   23220.40231904  .00000804  00000+0  17804-3 0  9990,2 39624  98.0805 264.9263 0014865  28.2965 331.9040 14.59700959498442,14.59700959,0.0014865,LEO
39630,DMSP 5D-3 F19 (USA 249),2014,101.82,-1.0,-,98.75,Inactive,0,LEO,USA,USA,Unknown,Unknown,Unknown,1 39630U 14015A   23220.05851452  .00000225  00000+0  14065-3 0  9998,2 39630  98.7510 222.8123 0009573 310.7051  49.3290 14.14240549482357,14.14240549,0.0009573,LEO
39634,SENTINEL-1A,2014,98.68,2300.0,+,98.18,Active,1,LEO,French Guiana,ESA,Government,Earth Observation,Soyuz,1 39634U 14016A   23220.43631455  .00000339  00000+0  81639-4 0  9992,2 39634  98.1830 227.0420 0001364  90.2163 269.9193 14.59203316497832,14.59203316,0.0001364,LEO
39635,IRNSS-1B,2014,1436.07,1432.0,+,28.76,Active,1,GSO,India,India,Government,Navigation (Global or Regional Positioning),PSLV,1 39635U 14017A   23220.19194115  .00000117  00000+0  00000+0 0  9996,2 39635  28.7591 258.1227 0020768 191.5765 350.9043  1.00273559 34311,1.00273559,0.0020768,GSO
39678,EGYPTSAT 2,2014,98.99,-1.0,-,51.62,Inactive,0,LEO,Kazakhstan,Egypt,Unknown,Unknown,Soyuz,1 39678U 14021A   23220.43679062  .00000318  00000+0  11519-3 0  9998,2 39678  51.6190 319.0908 0000494 129.6943 230.4048 14.54673703495041,14.54673703,4.94e-05,LEO
39727,LUCH-5V,2014,1436.09,1148.0,+,2.51,Active,1,GSO,Kazakhstan,Russia/USSR,Government,Communications,Proton,1 39727U 14023A   23220.41488855 -.00000278  00000+0  00000+0 0  9996,2 39727   2.5074  77.4063 0002966 109.1897  14.1588  1.00271936552045,1.00271936,0.0002966,GSO
